OBJECT_NAME,OBJECT_ID,EPOCH,MEAN_MOTION,ECCENTRICITY,INCLINATION,RA_OF_ASC_NODE,ARG_OF_PERICENTER,MEAN_ANOMALY,EPHEMERIS_TYPE,CLASSIFICATION_TYPE,NORAD_CAT_ID,ELEMENT_SET_NO,REV_AT_EPOCH,BSTAR,MEAN_MOTION_DOT,MEAN_MOTION_DDOT
TJS-7,2021-077A,2026-06-27T05:11:20.421312,1.00274736,.0003731,0.3300,264.7041,115.1624,233.8460,0,U,49115,999,964,0,-.112E-5,0
CHINASAT 9B,2021-080A,2026-06-27T02:43:24.443904,1.00271128,.00024562,0.0145,292.7448,182.3111,302.4330,0,U,49125,999,1774,0,-.301E-5,0
SHIJIAN-21 (SJ-21),2021-094A,2026-06-27T07:55:20.459424,1.00266626,.0049539,5.1364,61.1253,168.0309,293.0476,0,U,49330,999,546,0,-.341E-5,0
SES-17,2021-095A,2026-06-27T04:25:38.699616,1.00271164,.00013484,0.0244,40.4143,74.2632,159.9340,0,U,49332,999,1795,0,-.261E-5,0
SYRACUSE 4A,2021-095B,2026-06-27T04:10:02.714592,1.00270000,.00015095,0.0286,23.6198,63.8852,295.8018,0,U,49333,999,1804,0,0,0
QZS-1R (MICHIBIKI-1R),2021-096A,2026-06-26T14:51:13.875840,1.00253032,.0755635,37.4804,79.4425,271.9684,279.4688,0,U,49336,999,1710,0,-.312E-5,0
ZHONGXING-1D,2021-114A,2026-06-27T01:08:56.270400,1.00272353,.00003546,0.0444,166.9869,355.4555,260.1414,0,U,49505,999,1691,0,-.324E-5,0
STPSAT-6,2021-118A,2026-06-26T15:26:37.918752,1.00270723,.00010721,0.3452,85.3394,271.2626,38.1316,0,U,49817,999,1666,0,-.34E-6,0
EXPRESS AMU-7,2021-123A,2026-06-27T04:38:08.829600,1.00271789,.0000254,0.0162,323.3125,70.9729,95.5624,0,U,50001,999,1664,0,-.231E-5,0
EXPRESS AMU-3,2021-123B,2026-06-25T22:52:04.605312,1.00270643,.0000317,0.0216,329.0934,357.0236,33.8810,0,U,50002,999,712,0,0,0
TIANLIAN 2-02,2021-124A,2026-06-27T04:45:53.087904,1.00272712,.00008578,0.8278,85.9887,191.4957,240.2649,0,U,50005,999,1672,0,-.3E-7,0
TURKSAT 5B,2021-126A,2026-06-27T01:17:38.874624,1.00273851,.0003059,0.0675,341.6246,23.3365,331.6114,0,U,50212,999,1639,0,.158E-5,0
INMARSAT 6-F1,2021-128A,2026-06-27T04:20:54.174912,1.00268465,.00002806,0.0161,324.4222,84.9505,14.9066,0,U,50319,999,1635,0,-.16E-5,0
SHIYAN-12 01 (SY-12 01),2021-129A,2026-06-26T16:13:25.268160,1.00043795,.000318,3.6986,79.7881,294.2392,196.3577,0,U,50321,999,1659,0,.132E-5,0
SHIYAN-12 02 (SY-12 02),2021-129B,2026-06-26T17:25:38.477856,1.00487205,.0003081,3.6982,79.7912,56.6569,136.1595,0,U,50322,999,1659,0,-.304E-5,0
TJS-9,2021-135A,2026-06-26T21:45:34.230816,1.00271765,.0003858,0.0316,204.9564,214.2003,319.4974,0,U,50574,999,1652,0,-.287E-5,0
USA 324,2022-006A,2026-06-06T02:06:38.886912,1.00289779,.000284,0.7690,83.2777,165.6787,110.1567,0,U,51280,999,1602,0,-.58E-6,0
GOES 18,2022-021A,2026-06-26T22:09:54.396864,1.00273321,.0000647,0.0075,87.6581,38.4096,344.4465,0,U,51850,999,669,0,.108E-5,0
ZHONGXING-6D,2022-038A,2026-06-26T21:19:46.544160,1.00274505,.00002538,0.0086,53.6812,138.2308,168.0835,0,U,52255,999,1551,0,-.342E-5,0
NILESAT 301,2022-061A,2026-06-27T03:55:04.151136,1.00272820,.00048765,0.0450,353.7110,66.5801,266.7522,0,U,52817,999,1483,0,-.46E-6,0
CMS-02 (GSAT-24),2022-067A,2026-06-27T02:38:09.947040,1.00271600,.0001614,0.0379,253.1237,127.5339,17.1215,0,U,52903,999,1470,0,-.153E-5,0
MEASAT 3D,2022-067B,2026-06-27T02:40:32.219328,1.00272015,.00007613,0.0427,311.5917,102.9916,352.2884,0,U,52904,999,1474,0,-.23E-5,0
SES-22,2022-071A,2026-06-27T06:21:46.099296,1.00270604,.00013381,0.0107,317.8246,126.4230,147.5654,0,U,52933,999,762,0,.116E-5,0
WFOV (USA 332),2022-073A,2026-06-26T18:15:06.681600,1.00270865,.00017585,3.7351,78.4130,261.7110,327.8097,0,U,52940,999,1446,0,-.354E-5,0
TIANLIAN 2-03,2022-078A,2026-06-27T04:10:38.644032,1.00271363,.00010883,0.6960,77.2180,338.7619,292.5230,0,U,53100,999,1464,0,.83E-6,0
SBIRS GEO-6 (USA 336),2022-092A,2026-06-26T23:28:44.389056,1.00271850,.00021852,3.2410,317.6545,130.8635,317.7668,0,U,53355,999,1433,0,-.277E-5,0
EUTELSAT KONNECT VHTS,2022-110A,2026-06-27T03:57:48.888288,1.00270163,.00029058,0.0630,99.5379,340.2333,257.6742,0,U,53765,999,693,0,.28E-6,0
ZHONGXING-1E,2022-112A,2026-06-27T04:20:16.734336,1.00272037,.00002038,0.0131,119.3548,210.6280,91.8005,0,U,53813,999,1394,0,-.138E-5,0
SES-20,2022-123A,2026-06-27T03:43:38.677728,1.00272567,.00020499,0.0186,55.4238,34.1577,138.4956,0,U,53960,999,1363,0,-.9E-6,0
SES-21,2022-123B,2026-06-27T06:43:17.012064,1.00268055,.00009251,0.0389,20.6892,77.9245,146.6771,0,U,53961,999,731,0,0,0
GALAXY 33 (G-33),2022-128A,2026-06-27T06:42:16.578720,1.00271681,.00020771,0.0044,1.4515,90.5457,150.9618,0,U,54026,999,1384,0,.91E-6,0
GALAXY 34 (G-34),2022-128B,2026-06-27T06:31:34.458240,1.00267054,.00019445,0.0111,43.1970,59.8712,141.1998,0,U,54027,999,1401,0,.71E-6,0
