TJS-7                   
1 49115U 21077A   26178.21620858 -.00000112  00000+0  00000+0 0  9996
2 49115   0.3300 264.7041 0003731 115.1624 233.8460  1.00274736  9641
CHINASAT 9B             
1 49125U 21080A   26178.11347736 -.00000301  00000+0  00000+0 0  9991
2 49125   0.0145 292.7448 0002456 182.3111 302.4330  1.00271128 17749
SHIJIAN-21 (SJ-21)      
1 49330U 21094A   26178.33009791 -.00000341  00000+0  00000+0 0  9998
2 49330   5.1364  61.1253 0049539 168.0309 293.0476  1.00266626  5460
SES-17                  
1 49332U 21095A   26178.18447569 -.00000261  00000+0  00000+0 0  9994
2 49332   0.0244  40.4143 0001348  74.2632 159.9340  1.00271164 17954
SYRACUSE 4A             
1 49333U 21095B   26178.17364253  .00000000  00000+0  00000+0 0  9992
2 49333   0.0286  23.6198 0001509  63.8852 295.8018  1.00270000 18042
QZS-1R (MICHIBIKI-1R)   
1 49336U 21096A   26177.61891060 -.00000312  00000+0  00000+0 0  9992
2 49336  37.4804  79.4425 0755635 271.9684 279.4688  1.00253032 17101
ZHONGXING-1D            
1 49505U 21114A   26178.04787350 -.00000324  00000+0  00000+0 0  9998
2 49505   0.0444 166.9869 0000354 355.4555 260.1414  1.00272353 16914
STPSAT-6                
1 49817U 21118A   26177.64349443 -.00000034  00000+0  00000+0 0  9998
2 49817   0.3452  85.3394 0001072 271.2626  38.1316  1.00270723 16666
EXPRESS AMU-7           
1 50001U 21123A   26178.19315775 -.00000231  00000+0  00000+0 0  9992
2 50001   0.0162 323.3125 0000254  70.9729  95.5624  1.00271789 16644
EXPRESS AMU-3           
1 50002U 21123B   26176.95283108  .00000000  00000+0  00000+0 0  9992
2 50002   0.0216 329.0934 0000317 357.0236  33.8810  1.00270643  7121
TIANLIAN 2-02           
1 50005U 21124A   26178.19853111 -.00000003  00000+0  00000+0 0  9995
2 50005   0.8278  85.9887 0000857 191.4957 240.2649  1.00272712 16723
TURKSAT 5B              
1 50212U 21126A   26178.05392216  .00000158  00000+0  00000+0 0  9996
2 50212   0.0675 341.6246 0003059  23.3365 331.6114  1.00273851 16390
INMARSAT 6-F1           
1 50319U 21128A   26178.18118258 -.00000160  00000+0  00000+0 0  9996
2 50319   0.0161 324.4222 0000280  84.9505  14.9066  1.00268465 16351
SHIYAN-12 01 (SY-12 01) 
1 50321U 21129A   26177.67598690  .00000132  00000+0  00000+0 0  9993
2 50321   3.6986  79.7881 0003180 294.2392 196.3577  1.00043795 16596
SHIYAN-12 02 (SY-12 02) 
1 50322U 21129B   26177.72613979 -.00000304  00000+0  00000+0 0  9990
2 50322   3.6982  79.7912 0003081  56.6569 136.1595  1.00487205 16594
TJS-9                   
1 50574U 21135A   26177.90664619 -.00000287  00000+0  00000+0 0  9993
2 50574   0.0316 204.9564 0003858 214.2003 319.4974  1.00271765 16529
USA 324                 
1 51280U 22006A   26157.08795008 -.00000058  00000+0  00000+0 0  9996
2 51280   0.7690  83.2777 0002840 165.6787 110.1567  1.00289779 16021
GOES 18                 
1 51850U 22021A   26177.92354626  .00000108  00000+0  00000+0 0  9993
2 51850   0.0075  87.6581 0000647  38.4096 344.4465  1.00273321  6695
ZHONGXING-6D            
1 52255U 22038A   26177.88873315 -.00000342  00000+0  00000+0 0  9998
2 52255   0.0086  53.6812 0000253 138.2308 168.0835  1.00274505 15512
NILESAT 301             
1 52817U 22061A   26178.16324249 -.00000046  00000+0  00000+0 0  9998
2 52817   0.0450 353.7110 0004876  66.5801 266.7522  1.00272820 14833
CMS-02 (GSAT-24)        
1 52903U 22067A   26178.10983735 -.00000153  00000+0  00000+0 0  9994
2 52903   0.0379 253.1237 0001614 127.5339  17.1215  1.00271600 14701
MEASAT 3D               
1 52904U 22067B   26178.11148402 -.00000230  00000+0  00000+0 0  9996
2 52904   0.0427 311.5917 0000761 102.9916 352.2884  1.00272015 14740
SES-22                  
1 52933U 22071A   26178.26511689  .00000116  00000+0  00000+0 0  9992
2 52933   0.0107 317.8246 0001338 126.4230 147.5654  1.00270604  7623
WFOV (USA 332)          
1 52940U 22073A   26177.76049400 -.00000354  00000+0  00000+0 0  9998
2 52940   3.7351  78.4130 0001758 261.7110 327.8097  1.00270865 14463
TIANLIAN 2-03           
1 53100U 22078A   26178.17405838  .00000083  00000+0  00000+0 0  9997
2 53100   0.6960  77.2180 0001088 338.7619 292.5230  1.00271363 14642
SBIRS GEO-6 (USA 336)   
1 53355U 22092A   26177.97829154 -.00000277  00000+0  00000+0 0  9999
2 53355   3.2410 317.6545 0002185 130.8635 317.7668  1.00271850 14339
EUTELSAT KONNECT VHTS   
1 53765U 22110A   26178.16514917  .00000028  00000+0  00000+0 0  9998
2 53765   0.0630  99.5379 0002905 340.2333 257.6742  1.00270163  6934
ZHONGXING-1E            
1 53813U 22112A   26178.18074924 -.00000138  00000+0  00000+0 0  9998
2 53813   0.0131 119.3548 0000203 210.6280  91.8005  1.00272037 13944
SES-20                  
1 53960U 22123A   26178.15530877 -.00000090  00000+0  00000+0 0  9991
2 53960   0.0186  55.4238 0002049  34.1577 138.4956  1.00272567 13638
SES-21                  
1 53961U 22123B   26178.28005801  .00000000  00000+0  00000+0 0  9990
2 53961   0.0389  20.6892 0000925  77.9245 146.6771  1.00268055  7313
GALAXY 33 (G-33)        
1 54026U 22128A   26178.27935855  .00000091  00000+0  00000+0 0  9998
2 54026   0.0044   1.4515 0002077  90.5457 150.9618  1.00271681 13841
GALAXY 34 (G-34)        
1 54027U 22128B   26178.27192660  .00000071  00000+0  00000+0 0  9996
2 54027   0.0111  43.1970 0001944  59.8712 141.1998  1.00267054 14011
